CCSDS_OMM_VERS = 2.0
CREATION_DATE  = 
ORIGINATOR     = 

OBJECT_NAME    = STARLINK-35061
OBJECT_ID      = 2025-243Q
CENTER_NAME    = EARTH
REF_FRAME      = TEME
TIME_SYSTEM    = UTC
MEAN_ELEMENT_THEORY = SGP/SGP4

EPOCH          = 2025-11-22T12:00:02.998944
MEAN_MOTION    = 15.45149823
ECCENTRICITY   = .0000836
INCLINATION    = 53.1598
RA_OF_ASC_NODE = 23.6073
ARG_OF_PERICENTER = 82.3440
MEAN_ANOMALY   = 1.6045

EPHEMERIS_TYPE = 0
CLASSIFICATION_TYPE = U
NORAD_CAT_ID   = 66191
ELEMENT_SET_NO = 999
REV_AT_EPOCH   = 538
BSTAR          = -.48098E-1
MEAN_MOTION_DOT = -.2058322E-1
MEAN_MOTION_DDOT = 0

CCSDS_OMM_VERS = 2.0
CREATION_DATE  = 
ORIGINATOR     = 

OBJECT_NAME    = STARLINK-34937
OBJECT_ID      = 2025-243R
CENTER_NAME    = EARTH
REF_FRAME      = TEME
TIME_SYSTEM    = UTC
MEAN_ELEMENT_THEORY = SGP/SGP4

EPOCH          = 2025-11-22T12:00:02.998944
MEAN_MOTION    = 15.44066128
ECCENTRICITY   = .0001041
INCLINATION    = 53.1603
RA_OF_ASC_NODE = 23.6191
ARG_OF_PERICENTER = 63.3287
MEAN_ANOMALY   = 14.6638

EPHEMERIS_TYPE = 0
CLASSIFICATION_TYPE = U
NORAD_CAT_ID   = 66192
ELEMENT_SET_NO = 999
REV_AT_EPOCH   = 511
BSTAR          = -.49509E-1
MEAN_MOTION_DOT = -.2043252E-1
MEAN_MOTION_DDOT = 0

CCSDS_OMM_VERS = 2.0
CREATION_DATE  = 
ORIGINATOR     = 

OBJECT_NAME    = STARLINK-35197
OBJECT_ID      = 2025-243S
CENTER_NAME    = EARTH
REF_FRAME      = TEME
TIME_SYSTEM    = UTC
MEAN_ELEMENT_THEORY = SGP/SGP4

EPOCH          = 2025-11-22T12:00:02.998944
MEAN_MOTION    = 15.49313951
ECCENTRICITY   = .0001128
INCLINATION    = 53.1600
RA_OF_ASC_NODE = 23.6010
ARG_OF_PERICENTER = 81.4075
MEAN_ANOMALY   = 5.6510

EPHEMERIS_TYPE = 0
CLASSIFICATION_TYPE = U
NORAD_CAT_ID   = 66193
ELEMENT_SET_NO = 999
REV_AT_EPOCH   = 533
BSTAR          = -.70731E-3
MEAN_MOTION_DOT = -.39594E-3
MEAN_MOTION_DDOT = 0

CCSDS_OMM_VERS = 2.0
CREATION_DATE  = 
ORIGINATOR     = 

OBJECT_NAME    = STARLINK-35374
OBJECT_ID      = 2025-243T
CENTER_NAME    = EARTH
REF_FRAME      = TEME
TIME_SYSTEM    = UTC
MEAN_ELEMENT_THEORY = SGP/SGP4

EPOCH          = 2025-11-22T12:00:02.998944
MEAN_MOTION    = 15.49318774
ECCENTRICITY   = .0001122
INCLINATION    = 53.1600
RA_OF_ASC_NODE = 23.6051
ARG_OF_PERICENTER = 88.4408
MEAN_ANOMALY   = 356.6983

EPHEMERIS_TYPE = 0
CLASSIFICATION_TYPE = U
NORAD_CAT_ID   = 66194
ELEMENT_SET_NO = 999
REV_AT_EPOCH   = 533
BSTAR          = -.83408E-3
MEAN_MOTION_DOT = -.46577E-3
MEAN_MOTION_DDOT = 0

CCSDS_OMM_VERS = 2.0
CREATION_DATE  = 
ORIGINATOR     = 

OBJECT_NAME    = STARLINK-34813
OBJECT_ID      = 2025-243U
CENTER_NAME    = EARTH
REF_FRAME      = TEME
TIME_SYSTEM    = UTC
MEAN_ELEMENT_THEORY = SGP/SGP4

EPOCH          = 2025-11-22T12:00:02.998944
MEAN_MOTION    = 15.49317568
ECCENTRICITY   = .0001068
INCLINATION    = 53.1600
RA_OF_ASC_NODE = 23.6095
ARG_OF_PERICENTER = 82.3501
MEAN_ANOMALY   = 0.8725

EPHEMERIS_TYPE = 0
CLASSIFICATION_TYPE = U
NORAD_CAT_ID   = 66195
ELEMENT_SET_NO = 999
REV_AT_EPOCH   = 533
BSTAR          = -.82009E-3
MEAN_MOTION_DOT = -.45805E-3
MEAN_MOTION_DDOT = 0

CCSDS_OMM_VERS = 2.0
CREATION_DATE  = 
ORIGINATOR     = 

OBJECT_NAME    = STARLINK-35409
OBJECT_ID      = 2025-243V
CENTER_NAME    = EARTH
REF_FRAME      = TEME
TIME_SYSTEM    = UTC
MEAN_ELEMENT_THEORY = SGP/SGP4

EPOCH          = 2025-11-22T12:00:02.998944
MEAN_MOTION    = 15.49332699
ECCENTRICITY   = .0001152
INCLINATION    = 53.1599
RA_OF_ASC_NODE = 23.6137
ARG_OF_PERICENTER = 83.3383
MEAN_ANOMALY   = 357.9683

EPHEMERIS_TYPE = 0
CLASSIFICATION_TYPE = U
NORAD_CAT_ID   = 66196
ELEMENT_SET_NO = 999
REV_AT_EPOCH   = 533
BSTAR          = -.11808E-2
MEAN_MOTION_DOT = -.65625E-3
MEAN_MOTION_DDOT = 0

CCSDS_OMM_VERS = 2.0
CREATION_DATE  = 
ORIGINATOR     = 

OBJECT_NAME    = STARLINK-35518
OBJECT_ID      = 2025-243X
CENTER_NAME    = EARTH
REF_FRAME      = TEME
TIME_SYSTEM    = UTC
MEAN_ELEMENT_THEORY = SGP/SGP4

EPOCH          = 2025-11-22T12:00:02.998944
MEAN_MOTION    = 15.49319949
ECCENTRICITY   = .0001068
INCLINATION    = 53.1600
RA_OF_ASC_NODE = 23.6214
ARG_OF_PERICENTER = 81.9930
MEAN_ANOMALY   = 355.4803

EPHEMERIS_TYPE = 0
CLASSIFICATION_TYPE = U
NORAD_CAT_ID   = 66197
ELEMENT_SET_NO = 999
REV_AT_EPOCH   = 533
BSTAR          = -.94283E-3
MEAN_MOTION_DOT = -.52553E-3
MEAN_MOTION_DDOT = 0

CCSDS_OMM_VERS = 2.0
CREATION_DATE  = 
ORIGINATOR     = 

OBJECT_NAME    = STARLINK-35259
OBJECT_ID      = 2025-243W
CENTER_NAME    = EARTH
REF_FRAME      = TEME
TIME_SYSTEM    = UTC
MEAN_ELEMENT_THEORY = SGP/SGP4

EPOCH          = 2025-11-22T12:00:02.998944
MEAN_MOTION    = 15.41206054
ECCENTRICITY   = .0001186
INCLINATION    = 53.1606
RA_OF_ASC_NODE = 23.5919
ARG_OF_PERICENTER = 52.4443
MEAN_ANOMALY   = 37.2281

EPHEMERIS_TYPE = 0
CLASSIFICATION_TYPE = U
NORAD_CAT_ID   = 66198
ELEMENT_SET_NO = 999
REV_AT_EPOCH   = 533
BSTAR          = -.53654E-1
MEAN_MOTION_DOT = -.2013459E-1
MEAN_MOTION_DDOT = 0

CCSDS_OMM_VERS = 2.0
CREATION_DATE  = 
ORIGINATOR     = 

OBJECT_NAME    = STARLINK-35509
OBJECT_ID      = 2025-243Y
CENTER_NAME    = EARTH
REF_FRAME      = TEME
TIME_SYSTEM    = UTC
MEAN_ELEMENT_THEORY = SGP/SGP4

EPOCH          = 2025-11-22T12:00:02.998944
MEAN_MOTION    = 15.49317772
ECCENTRICITY   = .0001214
INCLINATION    = 53.1600
RA_OF_ASC_NODE = 23.5368
ARG_OF_PERICENTER = 87.3257
MEAN_ANOMALY   = 30.3952

EPHEMERIS_TYPE = 0
CLASSIFICATION_TYPE = U
NORAD_CAT_ID   = 66199
ELEMENT_SET_NO = 999
REV_AT_EPOCH   = 533
BSTAR          = -.78716E-3
MEAN_MOTION_DOT = -.43995E-3
MEAN_MOTION_DDOT = 0

CCSDS_OMM_VERS = 2.0
CREATION_DATE  = 
ORIGINATOR     = 

OBJECT_NAME    = STARLINK-35551
OBJECT_ID      = 2025-243Z
CENTER_NAME    = EARTH
REF_FRAME      = TEME
TIME_SYSTEM    = UTC
MEAN_ELEMENT_THEORY = SGP/SGP4

EPOCH          = 2025-11-22T12:00:02.998944
MEAN_MOTION    = 15.49317671
ECCENTRICITY   = .0001102
INCLINATION    = 53.1600
RA_OF_ASC_NODE = 23.5447
ARG_OF_PERICENTER = 79.8687
MEAN_ANOMALY   = 34.0210

EPHEMERIS_TYPE = 0
CLASSIFICATION_TYPE = U
NORAD_CAT_ID   = 66200
ELEMENT_SET_NO = 999
REV_AT_EPOCH   = 533
BSTAR          = -.82887E-3
MEAN_MOTION_DOT = -.46288E-3
MEAN_MOTION_DDOT = 0

CCSDS_OMM_VERS = 2.0
CREATION_DATE  = 
ORIGINATOR     = 

OBJECT_NAME    = STARLINK-35543
OBJECT_ID      = 2025-243AA
CENTER_NAME    = EARTH
REF_FRAME      = TEME
TIME_SYSTEM    = UTC
MEAN_ELEMENT_THEORY = SGP/SGP4

EPOCH          = 2025-11-22T12:00:02.998944
MEAN_MOTION    = 15.49330263
ECCENTRICITY   = .0001145
INCLINATION    = 53.1601
RA_OF_ASC_NODE = 23.5481
ARG_OF_PERICENTER = 80.2714
MEAN_ANOMALY   = 31.6988

EPHEMERIS_TYPE = 0
CLASSIFICATION_TYPE = U
NORAD_CAT_ID   = 66201
ELEMENT_SET_NO = 999
REV_AT_EPOCH   = 539
BSTAR          = -.11061E-2
MEAN_MOTION_DOT = -.61531E-3
MEAN_MOTION_DDOT = 0

CCSDS_OMM_VERS = 2.0
CREATION_DATE  = 
ORIGINATOR     = 

OBJECT_NAME    = STARLINK-35534
OBJECT_ID      = 2025-243AB
CENTER_NAME    = EARTH
REF_FRAME      = TEME
TIME_SYSTEM    = UTC
MEAN_ELEMENT_THEORY = SGP/SGP4

EPOCH          = 2025-11-22T12:00:02.998944
MEAN_MOTION    = 15.49233100
ECCENTRICITY   = .000125
INCLINATION    = 53.1600
RA_OF_ASC_NODE = 23.5523
ARG_OF_PERICENTER = 82.7242
MEAN_ANOMALY   = 27.3573

EPHEMERIS_TYPE = 0
CLASSIFICATION_TYPE = U
NORAD_CAT_ID   = 66202
ELEMENT_SET_NO = 999
REV_AT_EPOCH   = 533
BSTAR          = .21547E-2
MEAN_MOTION_DOT = .120934E-2
MEAN_MOTION_DDOT = 0

