STARLINK-35061          
1 66191U 25243Q   25326.50003471 -.02058322  00000+0 -48098-1 0  9990
2 66191  53.1598  23.6073 0000836  82.3440   1.6045 15.45149823  5389
STARLINK-34937          
1 66192U 25243R   25326.50003471 -.02043252  00000+0 -49509-1 0  9995
2 66192  53.1603  23.6191 0001041  63.3287  14.6638 15.44066128  5113
STARLINK-35197          
1 66193U 25243S   25326.50003471 -.00039594  00000+0 -70731-3 0  9991
2 66193  53.1600  23.6010 0001128  81.4075   5.6510 15.49313951  5330
STARLINK-35374          
1 66194U 25243T   25326.50003471 -.00046577  00000+0 -83408-3 0  9996
2 66194  53.1600  23.6051 0001122  88.4408 356.6983 15.49318774  5338
STARLINK-34813          
1 66195U 25243U   25326.50003471 -.00045805  00000+0 -82009-3 0  9996
2 66195  53.1600  23.6095 0001068  82.3501   0.8725 15.49317568  5335
STARLINK-35409          
1 66196U 25243V   25326.50003471 -.00065625  00000+0 -11808-2 0  9997
2 66196  53.1599  23.6137 0001152  83.3383 357.9683 15.49332699  5334
STARLINK-35518          
1 66197U 25243X   25326.50003471 -.00052553  00000+0 -94283-3 0  9993
2 66197  53.1600  23.6214 0001068  81.9930 355.4803 15.49319949  5332
STARLINK-35259          
1 66198U 25243W   25326.50003471 -.02013459  00000+0 -53654-1 0  9993
2 66198  53.1606  23.5919 0001186  52.4443  37.2281 15.41206054  5332
STARLINK-35509          
1 66199U 25243Y   25326.50003471 -.00043995  00000+0 -78716-3 0  9998
2 66199  53.1600  23.5368 0001214  87.3257  30.3952 15.49317772  5334
STARLINK-35551          
1 66200U 25243Z   25326.50003471 -.00046288  00000+0 -82887-3 0  9993
2 66200  53.1600  23.5447 0001102  79.8687  34.0210 15.49317671  5330
STARLINK-35543          
1 66201U 25243AA  25326.50003471 -.00061531  00000+0 -11061-2 0  9997
2 66201  53.1601  23.5481 0001145  80.2714  31.6988 15.49330263  5397
STARLINK-35534          
1 66202U 25243AB  25326.50003471  .00120934  00000+0  21547-2 0  9999
2 66202  53.1600  23.5523 0001250  82.7242  27.3573 15.49233100  5332
